#aV2014  5 18  0  0  0.00000000     288 DD+AD WGS84 FIT  NGA
## 1793      0.00000000   300.00000000 56795 0.0000000000000
+   31     1  2  3  4  5  7  8  9 10 11 12 13 14 15 16 17 18
+         19 20 21 22 23 24 25 26 27 28 29 30 31 32  0  0  0
+          0  0  0  0  0  0  0  0  0  0  0  0  0  0  0  0  0
+          0  0  0  0  0  0  0  0  0  0  0  0  0  0  0  0  0
+          0  0  0  0  0  0  0  0  0  0  0  0  0  0  0  0  0
++         2  2  2  2  2  2  2  2  2  2  2  2  2  2  2  2  2
++         2  2  2  2  2  2  2  2  2  2  2  2  2  2  0  0  0
++         0  0  0  0  0  0  0  0  0  0  0  0  0  0  0  0  0
++         0  0  0  0  0  0  0  0  0  0  0  0  0  0  0  0  0
++         0  0  0  0  0  0  0  0  0  0  0  0  0  0  0  0  0
%c cc cc ccc ccc cccc cccc cccc cccc ccccc ccccc ccccc ccccc
%c cc cc ccc ccc cccc cccc cccc cccc ccccc ccccc ccccc ccccc
%f  0.0000000  0.000000000  0.00000000000  0.000000000000000
%f  0.0000000  0.000000000  0.00000000000  0.000000000000000
%i    0    0    0    0      0      0      0      0         0
%i    0    0    0    0      0      0      0      0         0
/*      NGA, ST. LOUIS,MO.                                  
/*   EPHEMERIS COMPUTED FROM  1 DAYS OF DATA                
/*   EPOCHA SMOOTHER                                       
/* CCCCCCCCCCCCCCCCCCCCCCCCCCCCCCCCCCCCCCCCCCCCCCCCCCCCCCCCC
*  2014  5 18  1 15  0.00000000
P  1  15525.235950  -1048.286046  21508.953554     12.557160                    
V  1   8413.461178  26043.913882  -4660.724203      0.012477                    
P  2 -14179.860953 -21137.777368  -8124.213265    495.929583                    
V  2   -956.482297 -10958.787437  28641.685166      0.021572                    
P  3  24247.413954   7400.999643  -8729.081800    366.191463                    
V  3 -10442.256680   2558.152291 -28498.058502      0.051898                    
P  4  -6051.447145 -25412.168452   3742.848898      6.902194                    
V  4   5230.084818   3644.468179  30905.047738      0.000708                    
P  5 -12391.352191  -9387.026264 -21574.303537   -372.131292                    
V  5  17857.962195 -20724.168297  -1079.241322      0.025247                    
P  7   8796.735056 -15743.802397 -19309.635572    347.460863                    
V  7   8744.514325  23189.631134 -15195.849460      0.042293                    
P  8   3868.985505 -22428.353173 -12993.105408     13.606560                    
V  8   5281.195738  16197.974128 -26667.276678      0.002281                    
P  9   -424.592014 -24271.836906 -11076.763939    328.361183                    
V  9   6050.401152  11990.825559 -28043.626095      0.028467                    
P 10   3053.180969 -20959.027523 -16101.959940   -125.977690                    
V 10  15194.427225 -13311.901427  21067.013151     -0.016270                    
P 11  20272.787852   5408.380845  15909.489583   -489.812899                    
V 11  10351.472848  18859.267636 -18813.960877     -0.031900                    
P 12 -20435.215717   7030.299723  15217.217398    205.619205                    
V 12  12215.835209 -15261.762207  23565.665244      0.024621                    
P 13  18805.632728  -6699.003069 -17733.022360     -1.253383                    
V 13  20803.103401   7702.799526  19137.006566     -0.038410                    
P 14   -857.113954  15317.325525  21912.953819    171.929785                    
V 14 -26344.111301  -6994.369177   3750.833307     -0.034103                    
P 15 -26439.374892  -3839.510753    422.789279   -180.089143                    
V 15    -78.447624  -3364.682584 -31027.800022     -0.021651                    
P 16  11421.526377   9231.157395 -22190.618996   -217.918533                    
V 16 -19610.055639  19938.074493  -1451.646473      0.019176                    
P 17   -365.009791 -15516.774119  21833.887595    -94.007650                    
V 17  26371.366754   6070.624850   4590.939769     -0.030826                    
P 18 -16128.323269  20833.115266   1716.895455    319.896848                    
V 18  -4271.245741  -1439.289289 -31076.367428      0.023602                    
P 19  25502.347291   8223.518307   -987.147774   -457.475247                    
V 19  -1668.662574   1875.332337 -31537.233638     -0.021921                    
P 20  20429.563731  -9997.500671  13478.181804    190.540145                    
V 20  -8223.207846  15793.060381  23914.838090      0.038579                    
P 21  -6400.155707  18969.383844 -16590.371840   -361.705052                    
V 21 -10052.334365 -20380.909740 -19169.336744     -0.022248                    
P 22  -6539.146803  22397.463397  12751.098104    234.990429                    
V 22 -12897.294722  10031.431912 -24807.923199      0.026998                    
P 23  25688.877703   -148.884883  -7458.666655    -21.354767                    
V 23   8799.903355   4440.039993  29381.106246     -0.030779                    
P 24 -16647.669533  -4152.446486  20276.204053    -28.534518                    
V 24  -7678.861299 -24636.986417 -11243.857578     -0.006194                    
P 25 -19428.763270  17279.642576   4979.063446     23.960923                    
V 25   2404.175627  -6422.804440  31347.719968      0.005444                    
P 26 -20995.045304 -13477.458032 -10181.561068     75.462270                    
V 26  11856.516559   1750.105970 -28350.180492     -0.118889                    
P 27  20048.947624  12494.625273 -12203.331716    -15.836576                    
V 27 -15603.511071   -738.072647 -26343.465526      0.019093                    
P 28  11080.237998 -21639.745169  11132.994296    355.570545                    
V 28  10506.273040  -8227.152808 -28101.344512      0.029471                    
P 29 -19385.882790   6968.099965 -16699.338771    533.265391                    
V 29 -20235.240323  -6789.417295  20655.406710      0.026725                    
P 30   3084.329075 -23217.635654 -12508.732904    -12.451906                    
V 30   6264.863411  14787.457901 -25949.469958     -0.051854                    
P 31   7450.550929  25311.452282    564.844242    334.229192                    
V 31  -2576.194073    235.184841  32333.236587     -0.000782                    
P 32  16848.592318   3777.843835  20095.321410   -426.661480                    
V 32 -17389.763253  18818.563475  11611.678126      0.081201                    
EOF
